CTC1_L_00172001-01
1 44187U 25002QJ  26037.47803241  .00000000  00000+0  00000-0 0  9999
2 44187  55.0000   0.0000 0000000   0.0000   0.0000 13.89609337    16
CTC1_L_00172001-02
1 44188U 26497YX  26037.47803241  .00000000  00000+0  00000-0 0  9999
2 44188  55.0000   0.0000 0000000   0.0000  90.0000 13.89609337    16
CTC1_L_00172001-03
1 44189U 25847AP  26037.47803241  .00000000  00000+0  00000-0 0  9998
2 44189  55.0000   0.0000 0000000   0.0000 180.0000 13.89609337    17
CTC1_L_00172001-04
1 44190U 26545XC  26037.47803241  .00000000  00000+0  00000-0 0  9996
2 44190  55.0000   0.0000 0000000   0.0000 270.0000 13.89609337    19
CTC1_L_00172002-01
1 44191U 24743QL  26037.47803241  .00000000  00000+0  00000-0 0  9995
2 44191  55.0000  12.0000 0000000   0.0000  12.0000 13.89609337    17
CTC1_L_00172002-02
1 44192U 25439TS  26037.47803241  .00000000  00000+0  00000-0 0  9999
2 44192  55.0000  12.0000 0000000   0.0000 102.0000 13.89609337    18
CTC1_L_00172002-03
1 44193U 25545MD  26037.47803241  .00000000  00000+0  00000-0 0  9998
2 44193  55.0000  12.0000 0000000   0.0000 192.0000 13.89609337    18
CTC1_L_00172002-04
1 44194U 24758IW  26037.47803241  .00000000  00000+0  00000-0 0  9994
2 44194  55.0000  12.0000 0000000   0.0000 282.0000 13.89609337    19
CTC1_L_00172003-01
1 44195U 26882CI  26037.47803241  .00000000  00000+0  00000-0 0  9995
2 44195  55.0000  24.0000 0000000   0.0000  24.0000 13.89609337    17
CTC1_L_00172003-02
1 44196U 23169RS  26037.47803241  .00000000  00000+0  00000-0 0  9991
2 44196  55.0000  24.0000 0000000   0.0000 114.0000 13.89609337    18
CTC1_L_00172003-03
1 44197U 23330OH  26037.47803241  .00000000  00000+0  00000-0 0  9992
2 44197  55.0000  24.0000 0000000   0.0000 204.0000 13.89609337    19
CTC1_L_00172003-04
1 44198U 25082NW  26037.47803241  .00000000  00000+0  00000-0 0  9999
2 44198  55.0000  24.0000 0000000   0.0000 294.0000 13.89609337    19
CTC1_L_00172004-01
1 44199U 26948WK  26037.47803241  .00000000  00000+0  00000-0 0  9992
2 44199  55.0000  36.0000 0000000   0.0000  36.0000 13.89609337    17
CTC1_L_00172004-02
1 44200U 25561BO  26037.47803241  .00000000  00000+0  00000-0 0  9995
2 44200  55.0000  36.0000 0000000   0.0000 126.0000 13.89609337    10
CTC1_L_00172004-03
1 44201U 26286XN  26037.47803241  .00000000  00000+0  00000-0 0  9991
2 44201  55.0000  36.0000 0000000   0.0000 216.0000 13.89609337    11
CTC1_L_00172004-04
1 44202U 24591VT  26037.47803241  .00000000  00000+0  00000-0 0  9999
2 44202  55.0000  36.0000 0000000   0.0000 306.0000 13.89609337    12
CTC1_L_00172005-01
1 44203U 24794BL  26037.47803241  .00000000  00000+0  00000-0 0  9995
2 44203  55.0000  48.0000 0000000   0.0000  48.0000 13.89609337    19
CTC1_L_00172005-02
1 44204U 26073KU  26037.47803241  .00000000  00000+0  00000-0 0  9998
2 44204  55.0000  48.0000 0000000   0.0000 138.0000 13.89609337    10
CTC1_L_00172005-03
1 44205U 24592QP  26037.47803241  .00000000  00000+0  00000-0 0  9993
2 44205  55.0000  48.0000 0000000   0.0000 228.0000 13.89609337    11
CTC1_L_00172005-04
1 44206U 22998RR  26037.47803241  .00000000  00000+0  00000-0 0  9992
2 44206  55.0000  48.0000 0000000   0.0000 318.0000 13.89609337    12
CTC1_L_00172006-01
1 44207U 23451XL  26037.47803241  .00000000  00000+0  00000-0 0  9998
2 44207  55.0000  60.0000 0000000   0.0000  60.0000 13.89609337    11
CTC1_L_00172006-02
1 44208U 22502XR  26037.47803241  .00000000  00000+0  00000-0 0  9995
2 44208  55.0000  60.0000 0000000   0.0000 150.0000 13.89609337    12
CTC1_L_00172006-03
1 44209U 22786HH  26037.47803241  .00000000  00000+0  00000-0 0  9990
2 44209  55.0000  60.0000 0000000   0.0000 240.0000 13.89609337    13
CTC1_L_00172006-04
1 44210U 23882RL  26037.47803241  .00000000  00000+0  00000-0 0  9990
2 44210  55.0000  60.0000 0000000   0.0000 330.0000 13.89609337    15
CTC1_L_00172007-01
1 44211U 25411HW  26037.47803241  .00000000  00000+0  00000-0 0  9991
2 44211  55.0000  72.0000 0000000   0.0000  72.0000 13.89609337    12
CTC1_L_00172007-02
1 44212U 25774QV  26037.47803241  .00000000  00000+0  00000-0 0  9994
2 44212  55.0000  72.0000 0000000   0.0000 162.0000 13.89609337    13
CTC1_L_00172007-03
1 44213U 22197QN  26037.47803241  .00000000  00000+0  00000-0 0  9991
2 44213  55.0000  72.0000 0000000   0.0000 252.0000 13.89609337    14
CTC1_L_00172007-04
1 44214U 26252FW  26037.47803241  .00000000  00000+0  00000-0 0  9998
2 44214  55.0000  72.0000 0000000   0.0000 342.0000 13.89609337    15
CTC1_L_00172008-01
1 44215U 22394IG  26037.47803241  .00000000  00000+0  00000-0 0  9992
2 44215  55.0000  84.0000 0000000   0.0000  84.0000 13.89609337    12
CTC1_L_00172008-02
1 44216U 26999BG  26037.47803241  .00000000  00000+0  00000-0 0  9998
2 44216  55.0000  84.0000 0000000   0.0000 174.0000 13.89609337    13
CTC1_L_00172008-03
1 44217U 22084RK  26037.47803241  .00000000  00000+0  00000-0 0  9990
2 44217  55.0000  84.0000 0000000   0.0000 264.0000 13.89609337    14
CTC1_L_00172008-04
1 44218U 26035TB  26037.47803241  .00000000  00000+0  00000-0 0  9991
2 44218  55.0000  84.0000 0000000   0.0000 354.0000 13.89609337    15
CTC1_L_00172009-01
1 44219U 24687SX  26037.47803241  .00000000  00000+0  00000-0 0  9993
2 44219  55.0000  96.0000 0000000   0.0000  96.0000 13.89609337    12
CTC1_L_00172009-02
1 44220U 26704OA  26037.47803241  .00000000  00000+0  00000-0 0  9997
2 44220  55.0000  96.0000 0000000   0.0000 186.0000 13.89609337    14
CTC1_L_00172009-03
1 44221U 22733VD  26037.47803241  .00000000  00000+0  00000-0 0  9996
2 44221  55.0000  96.0000 0000000   0.0000 276.0000 13.89609337    15
CTC1_L_00172009-04
1 44222U 24412O   26037.47803241  .00000000  00000+0  00000-0 0  9993
2 44222  55.0000  96.0000 0000000   0.0000   6.0000 13.89609337    17
CTC1_L_00172010-01
1 44223U 22599US  26037.47803241  .00000000  00000+0  00000-0 0  9998
2 44223  55.0000 108.0000 0000000   0.0000 108.0000 13.89609337    15
CTC1_L_00172010-02
1 44224U 22075XN  26037.47803241  .00000000  00000+0  00000-0 0  9998
2 44224  55.0000 108.0000 0000000   0.0000 198.0000 13.89609337    15
CTC1_L_00172010-03
1 44225U 24854RI  26037.47803241  .00000000  00000+0  00000-0 0  9996
2 44225  55.0000 108.0000 0000000   0.0000 288.0000 13.89609337    16
CTC1_L_00172010-04
1 44226U 26604AT  26037.47803241  .00000000  00000+0  00000-0 0  9992
2 44226  55.0000 108.0000 0000000   0.0000  18.0000 13.89609337    18
CTC1_L_00172011-01
1 44227U 25813RH  26037.47803241  .00000000  00000+0  00000-0 0  9994
2 44227  55.0000 120.0000 0000000   0.0000 120.0000 13.89609337    17
CTC1_L_00172011-02
1 44228U 25688SQ  26037.47803241  .00000000  00000+0  00000-0 0  9995
2 44228  55.0000 120.0000 0000000   0.0000 210.0000 13.89609337    18
CTC1_L_00172011-03
1 44229U 26631CE  26037.47803241  .00000000  00000+0  00000-0 0  9995
2 44229  55.0000 120.0000 0000000   0.0000 300.0000 13.89609337    19
CTC1_L_00172011-04
1 44230U 22288BX  26037.47803241  .00000000  00000+0  00000-0 0  9991
2 44230  55.0000 120.0000 0000000   0.0000  30.0000 13.89609337    11
CTC1_L_00172012-01
1 44231U 25498NT  26037.47803241  .00000000  00000+0  00000-0 0  9998
2 44231  55.0000 132.0000 0000000   0.0000 132.0000 13.89609337    18
CTC1_L_00172012-02
1 44232U 25098TI  26037.47803241  .00000000  00000+0  00000-0 0  9995
2 44232  55.0000 132.0000 0000000   0.0000 222.0000 13.89609337    19
CTC1_L_00172012-03
1 44233U 26028JV  26037.47803241  .00000000  00000+0  00000-0 0  9990
2 44233  55.0000 132.0000 0000000   0.0000 312.0000 13.89609337    10
CTC1_L_00172012-04
1 44234U 25618A   26037.47803241  .00000000  00000+0  00000-0 0  9995
2 44234  55.0000 132.0000 0000000   0.0000  42.0000 13.89609337    11
CTC1_L_00172013-01
1 44235U 26257TK  26037.47803241  .00000000  00000+0  00000-0 0  9996
2 44235  55.0000 144.0000 0000000   0.0000 144.0000 13.89609337    18
CTC1_L_00172013-02
1 44236U 24796FH  26037.47803241  .00000000  00000+0  00000-0 0  9993
2 44236  55.0000 144.0000 0000000   0.0000 234.0000 13.89609337    19
CTC1_L_00172013-03
1 44237U 22493YP  26037.47803241  .00000000  00000+0  00000-0 0  9996
2 44237  55.0000 144.0000 0000000   0.0000 324.0000 13.89609337    10
CTC1_L_00172013-04
1 44238U 23981PC  26037.47803241  .00000000  00000+0  00000-0 0  9990
2 44238  55.0000 144.0000 0000000   0.0000  54.0000 13.89609337    11
CTC1_L_00172014-01
1 44239U 26225FU  26037.47803241  .00000000  00000+0  00000-0 0  9995
2 44239  55.0000 156.0000 0000000   0.0000 156.0000 13.89609337    18
CTC1_L_00172014-02
1 44240U 26049LL  26037.47803241  .00000000  00000+0  00000-0 0  9991
2 44240  55.0000 156.0000 0000000   0.0000 246.0000 13.89609337    10
CTC1_L_00172014-03
1 44241U 25397JC  26037.47803241  .00000000  00000+0  00000-0 0  9997
2 44241  55.0000 156.0000 0000000   0.0000 336.0000 13.89609337    11
CTC1_L_00172014-04
1 44242U 23457WD  26037.47803241  .00000000  00000+0  00000-0 0  9993
2 44242  55.0000 156.0000 0000000   0.0000  66.0000 13.89609337    12
CTC1_L_00172015-01
1 44243U 26373GO  26037.47803241  .00000000  00000+0  00000-0 0  9994
2 44243  55.0000 168.0000 0000000   0.0000 168.0000 13.89609337    19
CTC1_L_00172015-02
1 44244U 25810DU  26037.47803241  .00000000  00000+0  00000-0 0  9990
2 44244  55.0000 168.0000 0000000   0.0000 258.0000 13.89609337    10
CTC1_L_00172015-03
1 44245U 25556Z   26037.47803241  .00000000  00000+0  00000-0 0  9998
2 44245  55.0000 168.0000 0000000   0.0000 348.0000 13.89609337    11
CTC1_L_00172015-04
1 44246U 22930VB  26037.47803241  .00000000  00000+0  00000-0 0  9992
2 44246  55.0000 168.0000 0000000   0.0000  78.0000 13.89609337    12
CTC1_L_00172016-01
1 44247U 24469BK  26037.47803241  .00000000  00000+0  00000-0 0  9992
2 44247  55.0000 180.0000 0000000   0.0000 180.0000 13.89609337    11
CTC1_L_00172016-02
1 44248U 22563JU  26037.47803241  .00000000  00000+0  00000-0 0  9996
2 44248  55.0000 180.0000 0000000   0.0000 270.0000 13.89609337    12
